ONEWEB-0322             
1 49192U 21083G   26100.20498239 -.00000138  00000+0 -41221-3 0  9991
2 49192  87.8979 333.7778 0002180  81.8435 278.2941 13.13468838221994
ONEWEB-0324             
1 49193U 21083H   26100.15042378 -.00000284  00000+0 -75372-3 0  9991
2 49193  87.9230 348.9747 0001714  75.0051 285.1271 13.18685738221034
ONEWEB-0325             
1 49194U 21083J   26100.15373109 -.00000016  00000+0 -72915-4 0  9995
2 49194  87.9228 348.9885 0001730  81.8898 278.2430 13.18684939221040
ONEWEB-0326             
1 49195U 21083K   26100.16871292 -.00000346  00000+0 -91083-3 0  9995
2 49195  87.9231 348.9777 0001579  89.7128 270.4185 13.18686384221035
ONEWEB-0327             
1 49196U 21083L   26100.16844061  .00000008  00000+0 -11520-4 0  9993
2 49196  87.9227 348.9874 0001639  94.5855 265.5464 13.18687493221056
ONEWEB-0328             
1 49197U 21083M   26100.19482685  .00000036  00000+0  64573-4 0  9993
2 49197  87.9000 333.7445 0001656  77.4132 282.7183 13.13468794221975
ONEWEB-0331             
1 49198U 21083N   26100.16197844  .00000061  00000+0  12111-3 0  9999
2 49198  87.9231 348.9723 0001408  83.1488 276.9805 13.18685967221044
ONEWEB-0333             
1 49199U 21083P   26100.18974881  .00000176  00000+0  44635-3 0  9999
2 49199  87.8980 333.7786 0001699  82.6568 277.4754 13.13468622221985
ONEWEB-0334             
1 49200U 21083Q   26100.26444815  .00000089  00000+0  18666-3 0  9998
2 49200  87.9131 288.0107 0002695  85.6024 274.5417 13.20773096227828
ONEWEB-0335             
1 49201U 21083R   26100.18466482  .00000260  00000+0  67598-3 0  9993
2 49201  87.8987 333.7755 0001538  83.8344 276.2960 13.13468524221997
ONEWEB-0336             
1 49202U 21083S   26100.15588837  .00000092  00000+0  21653-3 0  9995
2 49202  87.8990 333.7774 0001304  82.9732 277.1545 13.13469489221984
ONEWEB-0337             
1 49203U 21083T   26100.16591596  .00000329  00000+0  86483-3 0  9998
2 49203  87.8980 333.7831 0001561  77.8130 282.3174 13.13469439221989
ONEWEB-0338             
1 49204U 21083U   26100.01192576  .00000016  00000+0  61638-5 0  9998
2 49204  87.9131 288.0659 0002078  88.4981 271.6391 13.20772724227817
ONEWEB-0339             
1 49205U 21083V   26100.17450972  .00000311  00000+0  81756-3 0  9992
2 49205  87.8995 333.7719 0001976  78.4370 281.6981 13.13468877221966
ONEWEB-0340             
1 49206U 21083W   26100.14877231 -.00000390  00000+0 -10219-2 0  9995
2 49206  87.9235 348.9806 0001622  81.6780 278.4536 13.18686026221007
ONEWEB-0341             
1 49207U 21083X   26100.15537673 -.00000069  00000+0 -20855-3 0  9991
2 49207  87.9224 348.9871 0001610  64.1054 296.0244 13.18684968221022
ONEWEB-0342             
1 49208U 21083Y   26100.01824860  .00000382  00000+0  90676-3 0  9998
2 49208  87.9142 288.0460 0001883  88.6808 271.4541 13.20774151227783
ONEWEB-0343             
1 49209U 21083Z   26100.16364039  .00000039  00000+0  65136-4 0  9995
2 49209  87.9234 348.9811 0001913  64.6256 295.5074 13.18686495221071
ONEWEB-0344             
1 49210U 21083AA  26100.16943875  .00000369  00000+0  97445-3 0  9991
2 49210  87.8980 333.7932 0001572  70.3483 289.7815 13.13469141221961
ONEWEB-0345             
1 49211U 21083AB  26100.16096346  .00000215  00000+0  55289-3 0  9994
2 49211  87.8990 333.7657 0001613  71.4863 288.6442 13.13469694221975
ONEWEB-0346             
1 49212U 21083AC  26100.16032344 -.00000133  00000+0 -37101-3 0  9997
2 49212  87.9213 348.9862 0001303  97.2709 262.8571 13.18685245221011
ONEWEB-0348             
1 49213U 21083AD  26100.23603713  .00000075  00000+0  15331-3 0  9994
2 49213  87.9140 288.0056 0001205  94.1409 265.9862 13.20773000227848
ONEWEB-0350             
1 49214U 21083AE  26100.17027352  .00000338  00000+0  89137-3 0  9994
2 49214  87.8993 333.7632 0001484  70.9402 289.1888 13.13472972222001
ONEWEB-0351             
1 49215U 21083AF  26100.22958048  .00000105  00000+0  22661-3 0  9997
2 49215  87.9142 288.0052 0002384  73.8454 286.2942 13.20773713227803
ONEWEB-0352             
1 49216U 21083AG  26100.15080560 -.00000056  00000+0 -18902-3 0  9995
2 49216  87.8991 333.7819 0002049  74.8834 285.2522 13.13470529222095
ONEWEB-0354             
1 49217U 21083AH  26100.25497514  .00000087  00000+0  18091-3 0  9999
2 49217  87.9141 287.9992 0001429  87.4267 272.7029 13.20772528227840
ONEWEB-0355             
1 49218U 21083AJ  26100.17972760  .00000360  00000+0  94995-3 0  9993
2 49218  87.8980 333.7843 0001760  74.0815 286.0508 13.13468581221976
ONEWEB-0357             
1 49219U 21083AK  26100.25181885  .00000046  00000+0  81399-4 0  9999
2 49219  87.9139 287.9945 0001816  86.5703 273.5638 13.20772268227848
ONEWEB-0332             
1 49279U 21090A   26100.01710605  .00000257  00000+0  65900-3 0  9998
2 49279  87.8937 303.3169 0001962  90.0105 270.1250 13.14502208218625
ONEWEB-0347             
1 49280U 21090B   26100.24235508  .00000052  00000+0  94901-4 0  9996
2 49280  87.9141 288.0052 0001978  96.4463 263.6895 13.20772681222076
ONEWEB-0349             
1 49281U 21090C   26100.27392412  .00000003  00000+0 -23582-4 0  9992
2 49281  87.9139 287.9991 0001699  90.0633 270.0695 13.20772054220862
ONEWEB-0353             
1 49282U 21090D   26100.00916469  .00000201  00000+0  50864-3 0  9999
2 49282  87.8935 303.3125 0001956  90.4647 269.6707 13.14501530218624
ONEWEB-0356             
1 49283U 21090E   26100.27233886  .00000039  00000+0  62960-4 0  9994
2 49283  87.9139 287.9926 0001845 119.0848 241.0471 13.20772697220868
ONEWEB-0358             
1 49284U 21090F   26100.22656789  .00000963  00000+0  23357-2 0  9992
2 49284  87.9141 288.0052 0001690  93.5751 266.5576 13.20780725221580
ONEWEB-0359             
1 49285U 21090G   26100.22340840  .00000018  00000+0  12605-4 0  9998
2 49285  87.9138 288.0025 0001467  88.3115 271.8186 13.20773165221569
ONEWEB-0360             
1 49286U 21090H   26100.21395689  .00000060  00000+0  11610-3 0  9990
2 49286  87.9138 288.0106 0001590  87.4707 272.6608 13.20772429220877
ONEWEB-0361             
1 49287U 21090J   26100.27076465  .00000100  00000+0  21415-3 0  9994
2 49287  87.9142 287.9972 0001663  97.3791 262.7532 13.20772651221331
ONEWEB-0362             
1 49288U 21090K   26100.01791774  .00000077  00000+0  15960-3 0  9995
2 49288  87.9173 318.5720 0001808  76.4087 283.7247 13.19727306217926
ONEWEB-0363             
1 49289U 21090L   26100.21078600 -.00000019  00000+0 -78107-4 0  9995
2 49289  87.9141 288.0101 0001595 102.6493 257.4819 13.20772997221333
ONEWEB-0364             
1 49290U 21090M   26100.24866244  .00001521  00000+0  37076-2 0  9994
2 49290  87.9132 288.0136 0001220  77.6928 282.4342 13.20764830222474
ONEWEB-0365             
1 49291U 21090N   26100.02739360 -.00000016  00000+0 -71962-4 0  9993
2 49291  87.9183 318.5529 0001836  83.7136 276.4206 13.19726908217432
ONEWEB-0366             
1 49292U 21090P   26100.00599375  .00000239  00000+0  60887-3 0  9990
2 49292  87.8925 303.3197 0001670  88.5466 271.5855 13.14501873218607
ONEWEB-0367             
1 49293U 21090Q   26100.05769123  .00000029  00000+0  40433-4 0  9999
2 49293  87.9142 288.0405 0001804  85.0098 275.1241 13.20772784220838
ONEWEB-0368             
1 49294U 21090R   26099.65258325 -.00052993  00000+0 -13214+0 0  9991
2 49294  87.9132 288.1413 0003678  81.6687 278.4863 13.20250016221932
ONEWEB-0369             
1 49295U 21090S   26100.02266081  .00000030  00000+0  43231-4 0  9994
2 49295  87.9178 318.5686 0001819  86.2938 273.8403 13.19727131217421
ONEWEB-0370             
1 49296U 21090T   26100.21868326  .00000050  00000+0  91725-4 0  9999
2 49296  87.9139 288.0091 0001606  82.1313 278.0003 13.20772882220899
ONEWEB-0371             
1 49297U 21090U   26100.03055140 -.00000073  00000+0 -21435-3 0  9999
2 49297  87.9176 318.5563 0001771  81.5654 278.5680 13.19726737217469
ONEWEB-0372             
1 49298U 21090V   26100.28324649  .00000023  00000+0  24884-4 0  9995
2 49298  87.9139 287.9969 0001824  90.8192 269.3151 13.20773230220879
ONEWEB-0373             
1 49299U 21090W   26100.23445096 -.00000170  00000+0 -44983-3 0  9997
2 49299  87.9134 288.0098 0001644  91.9743 268.1579 13.20771112222054
ONEWEB-0374             
1 49300U 21090X   26099.99331171  .00000038  00000+0  69208-4 0  9997
2 49300  87.8936 303.3091 0001497 111.2239 248.9051 13.14502690218605
ONEWEB-0375             
1 49301U 21090Y   26100.22183380  .00000073  00000+0  14771-3 0  9997
2 49301  87.9139 288.0019 0001398 107.3585 252.7701 13.20773484221552
ONEWEB-0376             
1 49302U 21090Z   26100.02898839  .00000122  00000+0  27151-3 0  9999
2 49302  87.9187 318.5526 0001952  84.0976 276.0379 13.19725030217466
ONEWEB-0377             
1 49303U 21090AA  26100.28352140 -.00000063  00000+0 -18651-3 0  9999
2 49303  87.9142 287.9910 0001535  88.1043 272.0266 13.20769947221554
ONEWEB-0378             
1 49304U 21090AB  26100.22985804  .00000088  00000+0  18383-3 0  9990
2 49304  87.9135 288.0106 0001701  95.4417 264.6910 13.20772798220816
ONEWEB-0379             
1 49305U 21090AC  26099.98854833  .00000034  00000+0  58243-4 0  9999
2 49305  87.8937 303.3206 0001659  92.8683 267.2636 13.14502283218607
ONEWEB-0380             
1 49306U 21090AD  26100.02581558  .00000096  00000+0  20672-3 0  9991
2 49306  87.9173 318.5650 0001479  84.9006 275.2295 13.19727298217433
ONEWEB-0381             
1 49307U 21090AE  26100.28023660  .00000024  00000+0  26104-4 0  9993
2 49307  87.9142 287.9962 0001578  98.7786 261.3526 13.20772247220863
ONEWEB-0382             
1 49308U 21090AF  26100.26761093 -.00000064  00000+0 -18889-3 0  9997
2 49308  87.9138 287.9946 0001683 102.0441 258.0881 13.20771287220854
